NORAD_CAT_ID,OBJECT_NAME,OBJECT_TYPE,EPOCH,MEAN_MOTION,ECCENTRICITY,INCLINATION,RA_OF_ASC_NODE,ARG_OF_PERICENTER,MEAN_ANOMALY,BSTAR,MEAN_MOTION_DOT,MEAN_MOTION_DDOT,TLE_LINE0,TLE_LINE1,TLE_LINE2,SEMIMAJOR_AXIS,PERIOD,APOGEE,PERIGEE,DECAYED
56496.0,STARLINK-5526,PAYLOAD,2024-08-03 22:23:03,14.98334254,0.000316,70.0001,133.6951,269.7166,90.3631,-5.5784e-05,-7.59e-06,0.0,0 STARLINK-5526,1 56496U 23064BA  24216.93267774 -.00000759  00000-0 -55784-4 0  9991,2 56496  70.0001 133.6951 0003160 269.7166  90.3631 14.98334254 68947,6950.18,96.107,574.241,569.848,0.0
56496.0,STARLINK-5526,PAYLOAD,2024-08-04 04:47:34,14.98342533,0.0002998,70.0005,133.022,271.0377,89.0438,4.1312e-05,4e-06,0.0,0 STARLINK-5526,1 56496U 23064BA  24217.19970901  .00000400  00000-0  41312-4 0  9996,2 56496  70.0005 133.0220 0002998 271.0377  89.0438 14.98342533 69346,6950.154,96.106,574.103,569.935,0.0
56496.0,STARLINK-5526,PAYLOAD,2024-08-04 20:48:55,14.98329903,0.0002868,70.0008,131.3379,274.9821,85.1011,0.00014892,1.684e-05,0.0,0 STARLINK-5526,1 56496U 23064BA  24217.86731303  .00001684  00000-0  14892-3 0  9998,2 56496  70.0008 131.3379 0002868 274.9821  85.1011 14.98329903 69448,6950.193,96.107,574.052,570.065,0.0
56496.0,STARLINK-5526,PAYLOAD,2024-08-04 22:25:03,14.98330492,0.0002865,70.0007,131.1696,275.1833,84.8999,0.00015257,1.728e-05,0.0,0 STARLINK-5526,1 56496U 23064BA  24217.93407264  .00001728  00000-0  15257-3 0  9997,2 56496  70.0007 131.1696 0002865 275.1833  84.8999 14.98330492 69097,6950.191,96.107,574.048,570.065,0.0
56496.0,STARLINK-5526,PAYLOAD,2024-08-05 03:13:27,14.98339041,0.0002629,70.0011,130.6656,267.0327,93.0531,0.00024404,2.821e-05,0.0,0 STARLINK-5526,1 56496U 23064BA  24218.13434400  .00002821  00000-0  24404-3 0  9991,2 56496  70.0011 130.6656 0002629 267.0327  93.0531 14.98339041 69484,6950.165,96.106,573.857,570.203,0.0
56496.0,STARLINK-5526,PAYLOAD,2024-08-05 11:14:08,14.98332122,0.0003195,70.0011,129.8233,275.4313,84.6481,7.5334e-05,8.06e-06,0.0,0 STARLINK-5526,1 56496U 23064BA  24218.46815100  .00000806  00000-0  75334-4 0  9997,2 56496  70.0011 129.8233 0003195 275.4313  84.6481 14.98332122 69531,6950.186,96.107,574.272,569.831,0.0
56496.0,STARLINK-5526,PAYLOAD,2024-08-05 20:50:57,14.98323761,0.0002477,70.0028,128.8221,237.4832,122.6088,-0.00011865,-1.508e-05,0.0,0 STARLINK-5526,1 56496U 23064BA  24218.86872396 -.00001508  00000-0 -11865-3 0  9991,2 56496  70.0028 128.8221 0002477 237.4832 122.6088 14.98323761 69592,6950.212,96.107,573.799,570.356,0.0
56496.0,STARLINK-5526,PAYLOAD,2024-08-05 22:27:06,14.98320168,0.0002514,70.004,128.6547,231.6227,128.4707,-0.00011945,-1.517e-05,0.0,0 STARLINK-5526,1 56496U 23064BA  24218.93548641 -.00001517  00000-0 -11945-3 0  9991,2 56496  70.0040 128.6547 0002514 231.6227 128.4707 14.98320168 69243,6950.223,96.108,573.836,570.341,0.0
56496.0,STARLINK-5526,PAYLOAD,2024-08-06 04:51:38,14.98319486,0.0002764,70.0006,127.9724,268.4195,91.6648,-0.00016499,-2.06e-05,0.0,0 STARLINK-5526,1 56496U 23064BA  24219.20253005 -.00002060  00000-0 -16499-3 0  9992,2 56496  70.0006 127.9724 0002764 268.4195  91.6648 14.98319486 69643,6950.225,96.108,574.011,570.169,0.0
56496.0,STARLINK-5526,PAYLOAD,2024-08-06 20:52:58,14.98334279,0.0002862,70.0002,126.2891,268.8951,91.188,2.3495e-05,1.87e-06,0.0,0 STARLINK-5526,1 56496U 23064BA  24219.87011695  .00000187  00000-0  23495-4 0  9993,2 56496  70.0002 126.2891 0002862 268.8951  91.1880 14.98334279 69740,6950.18,96.107,574.034,570.056,0.0
56496.0,STARLINK-5526,PAYLOAD,2024-08-07 03:17:29,14.98343903,0.0002926,70.0,125.6161,263.7964,96.2862,5.3542e-05,5.46e-06,0.0,0 STARLINK-5526,1 56496U 23064BA  24220.13714957  .00000546  00000-0  53542-4 0  9990,2 56496  70.0000 125.6161 0002926 263.7964  96.2862 14.98343903 69784,6950.15,96.106,574.049,569.981,0.0
56496.0,STARLINK-5526,PAYLOAD,2024-08-07 20:54:59,14.98323603,0.0002915,70.0002,123.7645,270.2555,89.827,0.00028118,3.263e-05,0.0,0 STARLINK-5526,1 56496U 23064BA  24220.87151815  .00003263  00000-0  28118-3 0  9998,2 56496  70.0002 123.7645 0002915 270.2555  89.8270 14.98323603 69897,6950.213,96.107,574.104,570.052,0.0
56496.0,STARLINK-5526,PAYLOAD,2024-08-08 03:19:30,14.98335984,0.00028,70.0003,123.0918,265.18,94.9039,0.00037737,4.413e-05,0.0,0 STARLINK-5526,1 56496U 23064BA  24221.13855058  .00004413  00000-0  37737-3 0  9993,2 56496  70.0003 123.0918 0002800 265.1800  94.9039 14.98335984 69573,6950.174,96.107,573.985,570.093,0.0
56496.0,STARLINK-5526,PAYLOAD,2024-08-08 20:57:01,14.98289231,0.0002989,70.0014,121.242,251.0594,109.0242,0.00097763,0.00011579,0.0,0 STARLINK-5526,1 56496U 23064BA  24221.87292909  .00011579  00000-0  97763-3 0  9990,2 56496  70.0014 121.2420 0002989 251.0594 109.0242 14.98289231 70046,6950.319,96.11,574.261,570.107,0.0
56496.0,STARLINK-5526,PAYLOAD,2024-08-08 22:33:10,14.98251398,0.0003178,70.0014,121.0738,247.3531,112.7292,0.0016962,0.00020163,0.0,0 STARLINK-5526,1 56496U 23064BA  24221.93970367  .00020163  00000-0  16962-2 0  9998,2 56496  70.0014 121.0738 0003178 247.3531 112.7292 14.98251398 69694,6950.436,96.112,574.51,570.092,0.0
56496.0,STARLINK-5526,PAYLOAD,2024-08-09 03:21:31,14.98336956,0.0002407,70.0017,120.5677,269.4642,90.6241,8.1041e-05,8.74e-06,0.0,0 STARLINK-5526,1 56496U 23064BA  24222.13995308  .00000874  00000-0  81041-4 0  9992,2 56496  70.0017 120.5677 0002407 269.4642  90.6241 14.98336956 70082,6950.171,96.107,573.709,570.363,0.0
56496.0,STARLINK-5526,PAYLOAD,2024-08-09 20:59:01,14.98329116,0.0002288,70.0018,118.714,267.8293,92.2605,3.7143e-05,3.5e-06,0.0,0 STARLINK-5526,1 56496U 23064BA  24222.87431740  .00000350  00000-0  37143-4 0  9991,2 56496  70.0018 118.7140 0002288 267.8293  92.2605 14.98329116 70192,6950.196,96.107,573.651,570.47,0.0
56496.0,STARLINK-5526,PAYLOAD,2024-08-10 03:23:32,14.98340572,0.0002472,70.0012,118.0404,269.3087,90.7789,4.5571e-05,4.51e-06,0.0,0 STARLINK-5526,1 56496U 23064BA  24223.14134832  .00000451  00000-0  45571-4 0  9990,2 56496  70.0012 118.0404 0002472 269.3087  90.7789 14.98340572 70235,6950.16,96.106,573.743,570.307,0.0
56496.0,STARLINK-5526,PAYLOAD,2024-08-10 21:01:01,14.98330931,0.0002224,70.0016,116.1902,269.402,90.6884,8.9569e-05,9.76e-06,0.0,0 STARLINK-5526,1 56496U 23064BA  24223.87571277  .00000976  00000-0  89569-4 0  9995,2 56496  70.0016 116.1902 0002224 269.4020  90.6884 14.98330931 70349,6950.19,96.107,573.601,570.509,0.0
56496.0,STARLINK-5526,PAYLOAD,2024-08-10 22:37:09,14.98329683,0.000218,70.0019,116.0219,255.6019,104.4898,0.00010663,1.18e-05,0.0,0 STARLINK-5526,1 56496U 23064BA  24223.94247260  .00001180  00000-0  10663-3 0  9991,2 56496  70.0019 116.0219 0002180 255.6019 104.4898 14.98329683 69998,6950.194,96.107,573.574,570.544,0.0
56496.0,STARLINK-5526,PAYLOAD,2024-08-11 09:50:04,14.98347163,0.0002653,70.0009,114.8417,270.5973,89.4882,0.00011446,1.274e-05,0.0,0 STARLINK-5526,1 56496U 23064BA  24224.40977859  .00001274  00000-0  11446-3 0  9991,2 56496  70.0009 114.8417 0002653 270.5973  89.4882 14.98347163 70421,6950.14,96.106,573.849,570.161,0.0
56496.0,STARLINK-5526,PAYLOAD,2024-08-11 22:39:09,14.98341813,0.0002247,70.0014,113.4964,261.2618,98.8286,0.00020637,2.371e-05,0.0,0 STARLINK-5526,1 56496U 23064BA  24224.94385953  .00002371  00000-0  20637-3 0  9999,2 56496  70.0014 113.4964 0002247 261.2618  98.8286 14.98341813 70148,6950.156,96.106,573.583,570.46,0.0
56496.0,STARLINK-5526,PAYLOAD,2024-08-12 01:51:24,14.98353041,0.0002534,70.0006,113.1587,260.9097,99.1776,0.00030809,3.587e-05,0.0,0 STARLINK-5526,1 56496U 23064BA  24225.07736901  .00003587  00000-0  30809-3 0  9999,2 56496  70.0006 113.1587 0002534 260.9097  99.1776 14.98353041 70169,6950.122,96.106,573.748,570.225,0.0
56496.0,STARLINK-5526,PAYLOAD,2024-08-12 21:05:02,14.98340508,0.0002353,70.003,111.1408,251.0408,109.0496,5.4604e-05,5.59e-06,0.0,0 STARLINK-5526,1 56496U 23064BA  24225.87850023  .00000559  00000-0  54604-4 0  9995,2 56496  70.0030 111.1408 0002353 251.0408 109.0496 14.98340508 70649,6950.16,96.106,573.661,570.39,0.0
56496.0,STARLINK-5526,PAYLOAD,2024-08-13 09:54:08,14.98311523,0.0002557,70.0024,109.7914,286.5539,73.5339,-0.00053197,-6.431e-05,0.0,0 STARLINK-5526,1 56496U 23064BA  24226.41259473 -.00006431  00000-0 -53197-3 0  9990,2 56496  70.0024 109.7914 0002557 286.5539  73.5339 14.98311523 70726,6950.25,96.108,573.892,570.338,0.0
56496.0,STARLINK-5526,PAYLOAD,2024-08-13 22:43:16,14.98290906,0.0002774,70.0012,108.4447,268.829,91.2551,-0.00056862,-6.864e-05,0.0,0 STARLINK-5526,1 56496U 23064BA  24226.94671305 -.00006864  00000-0 -56862-3 0  9992,2 56496  70.0012 108.4447 0002774 268.8290  91.2551 14.98290906 70441,6950.314,96.11,574.107,570.251,0.0
56496.0,STARLINK-5526,PAYLOAD,2024-08-14 09:56:10,14.98326238,0.0002474,70.0012,107.266,278.1587,81.9291,-0.00016318,-2.039e-05,0.0,0 STARLINK-5526,1 56496U 23064BA  24227.41400908 -.00002039  00000-0 -16318-3 0  9996,2 56496  70.0012 107.2660 0002474 278.1587  81.9291 14.98326238 70877,6950.205,96.107,573.789,570.35,0.0
56496.0,STARLINK-5526,PAYLOAD,2024-08-14 22:45:14,14.98334405,0.0003333,69.9994,105.9215,277.5261,82.552,0.00017892,2.043e-05,0.0,0 STARLINK-5526,1 56496U 23064BA  24227.94807916  .00002043  00000-0  17892-3 0  9995,2 56496  69.9994 105.9215 0003333 277.5261  82.5520 14.98334405 70597,6950.179,96.107,574.361,569.728,0.0
56496.0,STARLINK-5526,PAYLOAD,2024-08-15 01:57:30,14.98335607,0.0002974,69.9997,105.5846,274.6594,85.4226,0.0002437,2.816e-05,0.0,0 STARLINK-5526,1 56496U 23064BA  24228.08159761  .00002816  00000-0  24370-3 0  9996,2 56496  69.9997 105.5846 0002974 274.6594  85.4226 14.98335607 70975,6950.176,96.107,574.108,569.974,0.0
56496.0,STARLINK-5526,PAYLOAD,2024-08-15 22:47:14,14.98338069,0.0003164,69.9995,103.3964,278.6433,81.4368,0.00046841,5.502e-05,0.0,0 STARLINK-5526,1 56496U 23064BA  24228.94947658  .00005502  00000-0  46841-3 0  9993,2 56496  69.9995 103.3964 0003164 278.6433  81.4368 14.98338069 70741,6950.168,96.106,574.232,569.834,0.0
